FLOCK 4G-10             
1 62670U 25009BP  26068.70827885  .00013952  00000+0  52624-3 0  9995
2 62670  97.3967 150.5883 0003469 341.4844  18.6269 15.27155944121340
STARLINK-32872          
1 63019U 25032Q   26068.08694343  .00036976  00000+0  13464-2 0  9990
2 63019  43.0033 339.8177 0001852 257.3444 102.7200 15.27581564 60526
